#cP2023  6  2  0  0  0.00000000      96 ORBIT IGS20 HLM  IGS
## 2264 432000.00000000   900.00000000 60097 0.0000000000000
+   32   G01G02G03G04G05G06G07G08G09G10G11G12G13G14G15G16G17
+        G18G19G20G21G22G23G24G25G26G27G28G29G30G31G32  0  0
+          0  0  0  0  0  0  0  0  0  0  0  0  0  0  0  0  0
+          0  0  0  0  0  0  0  0  0  0  0  0  0  0  0  0  0
+          0  0  0  0  0  0  0  0  0  0  0  0  0  0  0  0  0
++         2  2  2  2  2  2  2  2  1  2  2  2  2  2  2  2  2
++         2  2  2  2  3  2  2  2  2  2  2  2  2  0  2  0  0
++         0  0  0  0  0  0  0  0  0  0  0  0  0  0  0  0  0
++         0  0  0  0  0  0  0  0  0  0  0  0  0  0  0  0  0
++         0  0  0  0  0  0  0  0  0  0  0  0  0  0  0  0  0
%c G  cc GPS ccc cccc cccc cccc cccc ccccc ccccc ccccc ccccc
%c cc cc ccc ccc cccc cccc cccc cccc ccccc ccccc ccccc ccccc
%f  1.2500000  1.025000000  0.00000000000  0.000000000000000
%f  0.0000000  0.000000000  0.00000000000  0.000000000000000
%i    0    0    0    0      0      0      0      0         0
%i    0    0    0    0      0      0      0      0         0
/* RAPID ORBIT COMBINATION FROM WEIGHTED AVERAGE OF:        
/* cod emr esa gfz grg jpl ngs sio usn whu                  
/* REFERENCED TO IGS TIME (IGST) AND TO WEIGHTED MEAN POLE: 
/* PCV:IGS20_2233 OL/AL:FES2014b NONE     Y  ORB:CMB CLK:CMB
*  2023  6  2  5 15  0.00000000
PG01 -21162.685501 -13332.704554   9103.597264    181.069231  3  6  6  92       
PG02 -19276.781953 -18347.747178  -2164.120878   -589.941204  6  7  6  95       
PG03 -14014.457513  -4642.014895  21948.207644   -284.486701  6  5  4  65       
PG04 -24643.750517  -1421.268324   9966.255041     57.233343  5  5  4 104       
PG05   6828.350705  20203.656144 -15932.402560   -129.515603  3  5  5 100       
PG06  -2332.298117  16824.790583  20450.040418    586.778010  5  7  5 114       
PG07 -18391.270724    631.037443 -18862.546149    163.084108  4  6  2 113       
PG08 -16893.189155  -8731.324294 -18773.688046   -125.382957  2  7  5 108       
PG09 -25584.443584   7204.490948    365.202835   -145.308974  4  6  4 108       
PG10  11073.437592 -22800.208707  -7199.798396    -39.438212  5  6  5 116       
PG11  10595.627731  22181.507392  10118.619891   -219.454477  3  9  6  90       
PG12  12662.366253   8682.689154  21402.806380   -383.471251  6  4  6  82       
PG13   8859.509253  13590.000496 -21245.987068    528.355711  2  7  3 109       
PG14 -13508.925259  20577.090863  -9763.500999     77.030936  5  9  5 117       
PG15  18216.767356   7182.262829 -18518.137973     45.056405  2  7  3  96       
PG16  -2027.629527 -22499.181082 -13896.865661   -495.527992  3  6  5 104       
PG17 -18074.053548  13643.780910  14394.840219    716.986960  4  6  6 108       
PG18  16017.538088  -3821.080304 -20875.874224   -291.042408  5  6  7 115       
PG19 -10395.550033  14802.263449  19114.261039    325.013845  5  6  6 105       
PG20   2777.837564  25509.600495  -7187.665883    430.273317  3  6  6  95       
PG21 -21147.058100 -16835.758175   1054.881064    153.430457  5  6  7  83       
PG22   6461.774707 -15843.890764  20726.444216    491.274833  6  6  6  80       
PG23  15150.419800 -13335.960107 -17177.914693     29.371507  3  6  6 115       
PG24  22043.063526  14570.828146   4031.265663   -210.392947  2  6  6  69       
PG25  16050.380828  -4889.620505  20215.331417    447.014248  4  5  2 102       
PG26   3884.977357 -26042.234468  -1616.203871    239.872931  5  9  7 109       
PG27  -5107.937955 -14342.031264 -22025.308417     24.907394  2  7  2  95       
PG28   3849.691409 -16169.275187  20695.898484     81.727106  4  4  5  60       
PG29  26288.492173  -3107.719847   2669.854291   -601.482552  6  5  4  96       
PG30 -10912.293768  11303.312980 -21295.046912   -513.629840  2  5  5  88       
PG31  -6758.386661 -21289.938011  13862.791048 999999.999999                    
PG32  14999.703803 -15489.096419  15560.111872   -490.813902  3  4  3  83       
*  2023  6  2  5 30  0.00000000
PG01 -21722.190193 -14073.937295   6394.715620    181.066955  4  7  6  82       
PG02 -18780.465618 -18227.597865  -4977.704997   -589.937588  7  8  6  84       
PG03 -13425.287062  -7090.985395  21672.389810   -284.475404  6  6  5  76       
PG04 -23465.040729  -1949.755066  12413.061359     57.242393  5  5  5  96       
PG05   6347.744755  21821.236852 -13825.800198   -129.516610  3  4  5  96       
PG06  -4094.272986  15226.143524  21414.605726    586.776904  5  7  5 111       
PG07 -19859.541168   -940.818163 -17381.150518    163.075092  3  5  3  98       
PG08 -14840.669473  -9520.134229 -20050.526216   -125.383662  2  7  5  94       
PG09 -25466.369404   6885.567208   3198.863710   -145.301178  3  6  4  93       
PG10  11053.729658 -21772.419875  -9879.798841    -39.439134  5  6  5 116       
PG11   9549.755557  21391.264824  12563.432452   -219.467530  3  9  6 102       
PG12  11884.937353  11027.214243  20775.175957   -383.475627  6  4  6  86       
PG13   6473.896573  14003.335137 -21817.164076    528.360472  2  7  3 104       
PG14 -13433.686235  19287.375936 -12206.532083     77.042235  4  8  6 106       
PG15  16362.016752   8191.317462 -19795.157874     45.059670  3  7  4  87       
PG16  -1375.315529 -23786.970010 -11546.052370   -495.524855  3  7  4 112       
PG17 -19517.894097  13825.100096  12091.804735    716.988151  5  6  6 108       
PG18  17628.283218  -2150.211201 -19802.566337   -291.056227  5  6  7 112       
PG19 -12530.856174  15067.448060  17555.159718    325.018339  5  6  6 101       
PG20   2472.808727  26160.951536  -4471.557130    430.271097  3  7  6 109       
PG21 -20954.136056 -16922.672907  -1751.994416    153.429878  6  7  6  80       
PG22   8653.581703 -16213.244404  19570.499081    491.280251  6  7  6  78       
PG23  14869.357524 -11287.957952 -18825.974284     29.374596  3  5  6 113       
PG24  22125.837064  15016.082085   1276.110919   -210.405098  2  6  6  87       
PG25  15616.496875  -2497.357233  20989.749181    447.016519  4  6  3  96       
PG26   4239.776598 -25996.420218   1205.527347    239.872407  5  9  6 104       
PG27  -2750.140308 -15045.110936 -21939.815694     24.900416  2  7  2  92       
PG28   5708.263039 -14629.301098  21399.468824     81.728791  4  3  5  64       
PG29  25871.696998  -2808.953723   5500.413031   -601.483645  6  6  4  93       
PG30 -12691.316361   9600.853265 -21168.966404   -513.627718  2  5  5  83       
PG31  -5349.540595 -20228.394919  15929.883772 999999.999999                    
PG32  16622.503449 -15787.508085  13423.706075   -490.821780  3  4  3  89       
*  2023  6  2  5 45  0.00000000
PG01 -22086.705972 -14575.230538   3576.975286    181.064663  4  7  6  95       
PG02 -18018.601284 -17957.268357  -7706.336934   -589.934094  7  8  5  98       
PG03 -12980.257624  -9514.915896  21019.488652   -284.464085  5  6  6  90       
PG04 -22064.517137  -2622.763071  14647.607590     57.251493  5  5  5  98       
PG05   5983.432102  23213.942736 -11482.362377   -129.517855  3  4  5 103       
PG06  -6010.712439  13673.411409  22012.056112    586.775791  5  7  4 104       
PG07 -21258.588172  -2311.835959 -15595.438777    163.066293  3  5  4 100       
PG08 -12714.145576 -10463.097792 -20987.725705   -125.385079  3  8  4  95       
PG09 -25069.661388   6443.965575   5977.545164   -145.293414  3  6  4 102       
PG10  11040.666395 -20451.539317 -12385.482917    -39.440857  5  6  5 116       
PG11   8268.887062  20478.301526  14792.569417   -219.480661  3  9  7 110       
PG12  11253.615084  13317.295086  19781.576402   -383.480007  6  5  7  99       
PG13   4070.018369  14554.759003 -22019.642604    528.365071  3  7  3 103       
PG14 -13369.501747  17736.300868 -14437.704221     77.053516  4  7  7  98       
PG15  14450.339525   9348.154154 -20746.319671     45.062633  3  7  4  85       
PG16   -858.883642 -24840.133773  -8994.688404   -495.521539  3  6  3 107       
PG17 -20694.499878  14006.260896   9586.237578    716.989587  5  6  6 104       
PG18  19220.109714   -662.186844 -18389.998426   -291.070056  5  6  7 108       
PG19 -14458.854272  15397.460963  15685.304484    325.022592  6  5  6 105       
PG20   2202.442855  26516.646808  -1679.296194    430.269285  3  7  6 106       
PG21 -20507.978882 -16846.463094  -4530.080800    153.429792  6  7  6  89       
PG22  10684.612295 -16659.393345  18088.449079    491.285849  7  7  5  66       
PG23  14675.624020  -9061.786123 -20148.352324     29.377695  3  4  6 116       
PG24  21977.838142  15277.518499  -1500.528371   -210.417163  3  6  6  81       
PG25  15292.050730    -21.573538  21391.396769    447.018839  4  6  3  96       
PG26   4563.964538 -25649.207525   4006.038965    239.871825  4  8  6 102       
PG27   -457.873370 -15864.652536 -21484.553457     24.893411  2  7  2  97       
PG28   7691.152540 -13152.223120  21734.114679     81.730514  4  2  5  70       
PG29  25168.777896  -2400.487537   8236.703948   -601.484562  6  7  4  88       
PG30 -14520.854410   8010.005283 -20675.464066   -513.625599  2  5  4  97       
PG31  -3724.433580 -19094.223558  17714.576280 999999.999999                    
PG32  17991.810182 -16078.640075  11056.445391   -490.829660  4  4  3  87       
EOF
